ATLAS CENTAUR 2         
1 00694U 63047A   26168.20910451  .00001082  00000+0  11662-3 0  9993
2 00694  30.3583 359.2715 0546003 237.7078 116.9502 14.12519675145709
THOR AGENA D R/B        
1 00733U 64002A   26168.64532554  .00000105  00000+0  54955-4 0  9999
2 00733  99.1154 187.4020 0032294 329.2236  30.7053 14.34065656252628
SL-3 R/B                
1 00877U 64053B   26168.80891595  .00000057  00000+0  35296-4 0  9998
2 00877  65.0777  37.6899 0080999 260.9158  98.2770 14.61426969281422
SL-8 R/B                
1 02802U 67045B   26168.43185839  .00000134  00000+0  44614-4 0  9998
2 02802  74.0095 161.8016 0063426 146.1290 214.3945 14.45682065103436
SL-8 R/B                
1 03230U 68040B   26167.98338000  .00002661  00000+0  19527-3 0  9990
2 03230  74.0307 110.7074 0025970 263.8672  95.9558 15.03816126104939
OAO 2                   
1 03597U 68110A   26168.05452578  .00000164  00000+0  49202-4 0  9990
2 03597  34.9942  70.4189 0006229 272.9047  87.0931 14.47352021 33504
ISIS 1                  
1 03669U 69009A   26168.19145772  .00000025  00000+0  18734-4 0  9990
2 03669  88.4427 144.3992 1706238 248.2163  92.9234 11.30433819359777
SERT 2                  
1 04327U 70009A   26168.77065088  .00000002  00000+0  59240-4 0  9991
2 04327  99.2841 106.4524 0003936 271.5549 151.5226 13.58739215793484
SL-3 R/B                
1 05118U 71028B   26168.82026022  .00043088  00000+0  35872-3 0  9998
2 05118  81.2336 287.5499 0014011 277.9559  82.0109 15.69791273  4346
ASTEX 1                 
1 05560U 71089A   26168.62405472  .00000312  00000+0  79147-4 0  9991
2 05560  92.6998 183.9965 0017895 104.9340 255.3849 14.50851973876799
SL-8 R/B                
1 05730U 71119B   26168.78188058  .00002648  00000+0  13777-3 0  9999
2 05730  73.8875 348.3472 0543758 294.1940  60.3296 14.39509792669889
OAO 3 (COPERNICUS)      
1 06153U 72065A   26168.09126617  .00000231  00000+0  51726-4 0  9990
2 06153  35.0058  90.9505 0007321 254.7067 122.1020 14.60060279860737
ATLAS CENTAUR R/B       
1 06155U 72065B   26168.21029706  .00000889  00000+0  12372-3 0  9999
2 06155  35.0012  82.4058 0032981 129.0806 231.2836 14.77921133855995
SL-8 R/B                
1 08459U 75112B   26168.52765875  .00000187  00000+0  70152-4 0  9994
2 08459  74.0592 195.2475 0016867 262.1518  97.7722 14.38246501646229
SL-3 R/B                
1 10114U 77057B   26168.79887321  .00009551  00000+0  18521-3 0  9990
2 10114  97.5837 345.3688 0005427 282.2109  77.8533 15.47895412683801
SEASAT 1                
1 10967U 78064A   26168.37790973  .00000174  00000+0  86911-4 0  9996
2 10967 108.0173 334.6891 0001817 240.4399 119.6565 14.46243431520920
SL-14 R/B               
1 11267U 79011B   26168.51087794  .00000438  00000+0  40562-4 0  9994
2 11267  82.5237   1.8470 0017534  84.6339 275.6880 14.92014486543668
SL-8 R/B                
1 11574U 79089B   26168.62110731  .00000171  00000+0  59574-4 0  9997
2 11574  74.0694 266.0541 0014987  49.6418 310.6044 14.42404192450519
SL-14 R/B               
1 11672U 80005B   26168.65674133  .00000345  00000+0  32236-4 0  9999
2 11672  82.5139 212.3948 0015531 184.2917 175.8172 14.91029197491382
SL-8 R/B                
1 12139U 81003B   26168.54874376  .00013576  00000+0  33114-3 0  9991
2 12139  82.9360 197.4359 0250759 189.9257 169.6979 15.14235486329777
SL-3 R/B                
1 12465U 81046B   26168.83737963  .00009629  00000+0  20780-3 0  9991
2 12465  81.2295 169.2858 0018485  35.6848 324.5627 15.44209084453879
SL-3 R/B                
1 12904U 81103B   26168.84275367  .00003334  00000+0  14347-3 0  9998
2 12904  81.1587  95.8633 0011783 313.7722  46.2534 15.22290391988460
SL-3 R/B                
1 13068U 82013B   26168.81410750  .00002809  00000+0  11836-3 0  9991
2 13068  81.1738  43.3221 0021432 198.7252 161.3195 15.22790272419589
SL-3 R/B                
1 13154U 82039B   26168.82975237  .00002914  00000+0  17365-3 0  9992
2 13154  81.1448 100.3436 0028745 354.1014   5.9868 15.10542569396757
SL-3 R/B                
1 13403U 82079B   26168.83763656  .00003579  00000+0  13795-3 0  9995
2 13403  81.1463  74.7182 0023732 183.2554 176.8529 15.25793171392968
SL-14 R/B               
1 13553U 82092B   26168.65666589  .00000310  00000+0  32025-4 0  9991
2 13553  82.5680  47.8641 0019628 333.6518  80.8810 14.86748091343781
SL-3 R/B                
1 13819U 83010B   26168.70498686  .00011247  00000+0  20444-3 0  9996
2 13819  81.1013 239.3273 0015501  60.6479 299.6313 15.49255030373416
SL-3 R/B                
1 14208U 83075B   26168.78351978  .00007988  00000+0  19791-3 0  9990
2 14208  97.6100 177.3122 0019353 226.7506 133.2125 15.40501201345550
COSMOS 1536             
1 14699U 84013A   26168.62166573  .00004657  00000+0  18470-3 0  9998
2 14699  82.5441   8.4120 0012655 293.6556  66.3353 15.25055656287840
SL-14 R/B               
1 14820U 84027B   26168.41695202  .00000360  00000+0  38251-4 0  9999
2 14820  82.5411 151.5016 0018132   8.4900 351.6619 14.86059875262445
SL-8 R/B                
1 15483U 85006B   26168.78125229  .00000167  00000+0  64037-4 0  9996
2 15483  74.0459  76.9709 0018898 323.9876  98.6273 14.37835254168419
