OBJECT_NAME,OBJECT_ID,EPOCH,MEAN_MOTION,ECCENTRICITY,INCLINATION,RA_OF_ASC_NODE,ARG_OF_PERICENTER,MEAN_ANOMALY,EPHEMERIS_TYPE,CLASSIFICATION_TYPE,NORAD_CAT_ID,ELEMENT_SET_NO,REV_AT_EPOCH,BSTAR,MEAN_MOTION_DOT,MEAN_MOTION_DDOT
ATLAS CENTAUR 2,1963-047A,2026-06-17T05:01:06.629664,14.12519675,.05460038,30.3583,359.2715,237.7078,116.9502,0,U,694,999,14570,.11661849E-3,.1082E-4,0
THOR AGENA D R/B,1964-002A,2026-06-17T15:29:16.126656,14.34065656,.0032294,99.1154,187.4020,329.2236,30.7053,0,U,733,999,25262,.54955E-4,.105E-5,0
SL-3 R/B,1964-053B,2026-06-17T19:24:50.338080,14.61426969,.0080999,65.0777,37.6899,260.9158,98.2770,0,U,877,999,28142,.35296E-4,.57E-6,0
SL-8 R/B,1967-045B,2026-06-17T10:21:52.564896,14.45682065,.00634265,74.0095,161.8016,146.1290,214.3945,0,U,2802,999,10343,.44614063E-4,.134E-5,0
SL-8 R/B,1968-040B,2026-06-16T23:36:04.032000,15.03816126,.00259707,74.0307,110.7074,263.8672,95.9558,0,U,3230,999,10493,.19526959E-3,.2661E-4,0
OAO 2,1968-110A,2026-06-17T01:18:31.027392,14.47352021,.0006229,34.9942,70.4189,272.9047,87.0931,0,U,3597,999,3350,.49202E-4,.164E-5,0
ISIS 1,1969-009A,2026-06-17T04:35:41.947008,11.30433819,.17062382,88.4427,144.3992,248.2163,92.9234,0,U,3669,999,35977,.18734352E-4,.25E-6,0
SERT 2,1970-009A,2026-06-17T18:29:44.236032,13.58739215,.0003936,99.2841,106.4524,271.5549,151.5226,0,U,4327,999,79348,.5924E-4,.2E-7,0
SL-3 R/B,1971-028B,2026-06-17T19:41:10.483008,15.69791273,.0014011,81.2336,287.5499,277.9559,82.0109,0,U,5118,999,434,.35872E-3,.43088E-3,0
ASTEX 1,1971-089A,2026-06-17T14:58:38.327808,14.50851973,.0017895,92.6998,183.9965,104.9340,255.3849,0,U,5560,999,87679,.79147E-4,.312E-5,0
SL-8 R/B,1971-119B,2026-06-17T18:45:54.482112,14.39509792,.0543758,73.8875,348.3472,294.1940,60.3296,0,U,5730,999,66988,.13777E-3,.2648E-4,0
OAO 3 (COPERNICUS),1972-065A,2026-06-17T02:11:25.397088,14.60060279,.0007321,35.0058,90.9505,254.7067,122.1020,0,U,6153,999,86073,.51725613E-4,.231E-5,0
ATLAS CENTAUR R/B,1972-065B,2026-06-17T05:02:49.665984,14.77921133,.00329814,35.0012,82.4058,129.0806,231.2836,0,U,6155,999,85599,.12371643E-3,.889E-5,0
SL-8 R/B,1975-112B,2026-06-17T12:39:49.716000,14.38246501,.0016867,74.0592,195.2475,262.1518,97.7722,0,U,8459,999,64622,.70152E-4,.187E-5,0
SL-3 R/B,1977-057B,2026-06-17T19:10:22.645344,15.47895412,.0005427,97.5837,345.3688,282.2109,77.8533,0,U,10114,999,68380,.18521E-3,.9551E-4,0
SEASAT 1,1978-064A,2026-06-17T09:04:11.400672,14.46243431,.0001817,108.0173,334.6891,240.4399,119.6565,0,U,10967,999,52092,.86911028E-4,.174E-5,0
SL-14 R/B,1979-011B,2026-06-17T12:15:39.854016,14.92014486,.00175347,82.5237,1.8470,84.6339,275.6880,0,U,11267,999,54366,.40562463E-4,.438E-5,0
SL-8 R/B,1979-089B,2026-06-17T14:54:23.671584,14.42404192,.0014987,74.0694,266.0541,49.6418,310.6044,0,U,11574,999,45051,.59574E-4,.171E-5,0
SL-14 R/B,1980-005B,2026-06-17T15:45:42.450912,14.91029197,.0015531,82.5139,212.3948,184.2917,175.8172,0,U,11672,999,49138,.32236E-4,.345E-5,0
SL-8 R/B,1981-003B,2026-06-17T13:10:11.460864,15.14235486,.0250759,82.9360,197.4359,189.9257,169.6979,0,U,12139,999,32977,.33114E-3,.13576E-3,0
SL-3 R/B,1981-046B,2026-06-17T20:05:49.600032,15.44209084,.0018485,81.2295,169.2858,35.6848,324.5627,0,U,12465,999,45387,.2078E-3,.9629E-4,0
SL-3 R/B,1981-103B,2026-06-17T20:13:33.917088,15.22290391,.0011783,81.1587,95.8633,313.7722,46.2534,0,U,12904,999,98846,.14347E-3,.3334E-4,0
SL-3 R/B,1982-013B,2026-06-17T19:32:18.888000,15.22790272,.0021432,81.1738,43.3221,198.7252,161.3195,0,U,13068,999,41958,.11836E-3,.2809E-4,0
SL-3 R/B,1982-039B,2026-06-17T19:54:50.604768,15.10542569,.0028745,81.1448,100.3436,354.1014,5.9868,0,U,13154,999,39675,.17365E-3,.2914E-4,0
SL-3 R/B,1982-079B,2026-06-17T20:06:11.798784,15.25793171,.0023732,81.1463,74.7182,183.2554,176.8529,0,U,13403,999,39296,.13795E-3,.3579E-4,0
SL-14 R/B,1982-092B,2026-06-17T15:45:35.932896,14.86748091,.0019628,82.5680,47.8641,333.6518,80.8810,0,U,13553,999,34378,.32025E-4,.31E-5,0
SL-3 R/B,1983-010B,2026-06-17T16:55:10.864704,15.49255030,.0015501,81.1013,239.3273,60.6479,299.6313,0,U,13819,999,37341,.20444E-3,.11247E-3,0
SL-3 R/B,1983-075B,2026-06-17T18:48:16.108992,15.40501201,.0019353,97.6100,177.3122,226.7506,133.2125,0,U,14208,999,34555,.19791E-3,.7988E-4,0
COSMOS 1536,1984-013A,2026-06-17T14:55:11.919072,15.25055656,.0012655,82.5441,8.4120,293.6556,66.3353,0,U,14699,999,28784,.1847E-3,.4657E-4,0
SL-14 R/B,1984-027B,2026-06-17T10:00:24.654528,14.86059875,.00181327,82.5411,151.5016,8.4900,351.6619,0,U,14820,999,26244,.38251227E-4,.36E-5,0
SL-8 R/B,1985-006B,2026-06-17T18:45:00.197856,14.37835254,.0018898,74.0459,76.9709,323.9876,98.6273,0,U,15483,999,16841,.64037E-4,.167E-5,0
